[
  {
    "OBJECT_NAME": "STARLINK-32003",
    "OBJECT_ID": "24117G",
    "EPOCH": "2025-11-11T04:17:03.521472",
    "MEAN_MOTION": 15.30260774,
    "ECCENTRICITY": 8.08e-05,
    "INCLINATION": 53.1573,
    "RA_OF_ASC_NODE": 227.4719,
    "ARG_OF_PERICENTER": 104.8696,
    "MEAN_ANOMALY": 255.2395,
    "EPHEMERIS_TYPE": 0,
    "CLASSIFICATION_TYPE": "U",
    "NORAD_CAT_ID": 60097,
    "ELEMENT_SET_NO": 999,
    "REV_AT_EPOCH": 7874,
    "BSTAR": 0.0011914,
    "MEAN_MOTION_DOT": 0.00035161,
    "MEAN_MOTION_DDOT": 0.0,
    "TLE_LINE1": "1 60097U 24117G   25315.17851298  .00035161  00000+0  11914-2 0  9997",
    "TLE_LINE2": "2 60097  53.1573 227.4719 0000808 104.8696 255.2395 15.30260774 78742",
    "COMMENT": "Grouped by shell and plane from TLE"
  },
  {
    "OBJECT_NAME": "STARLINK-32026",
    "OBJECT_ID": "24117H",
    "EPOCH": "2025-11-11T01:22:38.084736",
    "MEAN_MOTION": 15.30187547,
    "ECCENTRICITY": 0.0001573,
    "INCLINATION": 53.1587,
    "RA_OF_ASC_NODE": 228.1403,
    "ARG_OF_PERICENTER": 76.1947,
    "MEAN_ANOMALY": 283.9229,
    "EPHEMERIS_TYPE": 0,
    "CLASSIFICATION_TYPE": "U",
    "NORAD_CAT_ID": 60098,
    "ELEMENT_SET_NO": 999,
    "REV_AT_EPOCH": 7872,
    "BSTAR": 0.0,
    "MEAN_MOTION_DOT": -2.969e-05,
    "MEAN_MOTION_DDOT": 0.0,
    "TLE_LINE1": "1 60098U 24117H   25315.05738524 -.00002969  00000+0 -88167-4 0  9999",
    "TLE_LINE2": "2 60098  53.1587 228.1403 0001573  76.1947 283.9229 15.30187547 78724",
    "COMMENT": "Grouped by shell and plane from TLE"
  },
  {
    "OBJECT_NAME": "STARLINK-31732",
    "OBJECT_ID": "24117J",
    "EPOCH": "2025-11-11T03:43:37.432704",
    "MEAN_MOTION": 15.3019475,
    "ECCENTRICITY": 0.0001207,
    "INCLINATION": 53.162,
    "RA_OF_ASC_NODE": 227.3252,
    "ARG_OF_PERICENTER": 85.4761,
    "MEAN_ANOMALY": 274.6378,
    "EPHEMERIS_TYPE": 0,
    "CLASSIFICATION_TYPE": "U",
    "NORAD_CAT_ID": 60099,
    "ELEMENT_SET_NO": 999,
    "REV_AT_EPOCH": 7874,
    "BSTAR": 2.7859000000000002e-05,
    "MEAN_MOTION_DOT": 4.66e-06,
    "MEAN_MOTION_DDOT": 0.0,
    "TLE_LINE1": "1 60099U 24117J   25315.15529436  .00000466  00000+0  27859-4 0  9990",
    "TLE_LINE2": "2 60099  53.1620 227.3252 0001207  85.4761 274.6378 15.30194750 78745",
    "COMMENT": "Grouped by shell and plane from TLE"
  },
  {
    "OBJECT_NAME": "STARLINK-31996",
    "OBJECT_ID": "24117K",
    "EPOCH": "2025-11-11T04:03:22.956480",
    "MEAN_MOTION": 15.30204892,
    "ECCENTRICITY": 0.0001493,
    "INCLINATION": 53.1599,
    "RA_OF_ASC_NODE": 227.4109,
    "ARG_OF_PERICENTER": 88.6324,
    "MEAN_ANOMALY": 271.4847,
    "EPHEMERIS_TYPE": 0,
    "CLASSIFICATION_TYPE": "U",
    "NORAD_CAT_ID": 60100,
    "ELEMENT_SET_NO": 999,
    "REV_AT_EPOCH": 7874,
    "BSTAR": 0.00018448,
    "MEAN_MOTION_DOT": 5.109e-05,
    "MEAN_MOTION_DDOT": 0.0,
    "TLE_LINE1": "1 60100U 24117K   25315.16901570  .00005109  00000+0  18448-3 0  9999",
    "TLE_LINE2": "2 60100  53.1599 227.4109 0001493  88.6324 271.4847 15.30204892 78747",
    "COMMENT": "Grouped by shell and plane from TLE"
  },
  {
    "OBJECT_NAME": "STARLINK-31999",
    "OBJECT_ID": "24117L",
    "EPOCH": "2025-11-11T03:34:39.986688",
    "MEAN_MOTION": 15.30198593,
    "ECCENTRICITY": 0.0001238,
    "INCLINATION": 53.1611,
    "RA_OF_ASC_NODE": 227.9999,
    "ARG_OF_PERICENTER": 91.7423,
    "MEAN_ANOMALY": 268.372,
    "EPHEMERIS_TYPE": 0,
    "CLASSIFICATION_TYPE": "U",
    "NORAD_CAT_ID": 60101,
    "ELEMENT_SET_NO": 999,
    "REV_AT_EPOCH": 7873,
    "BSTAR": 4.246900000000001e-06,
    "MEAN_MOTION_DOT": -2.33e-06,
    "MEAN_MOTION_DDOT": 0.0,
    "TLE_LINE1": "1 60101U 24117L   25315.14907392 -.00000233  00000+0  42469-5 0  9992",
    "TLE_LINE2": "2 60101  53.1611 227.9999 0001238  91.7423 268.3720 15.30198593 78731",
    "COMMENT": "Grouped by shell and plane from TLE"
  },
  {
    "OBJECT_NAME": "STARLINK-31954",
    "OBJECT_ID": "24117M",
    "EPOCH": "2025-11-11T03:25:32.763648",
    "MEAN_MOTION": 15.3019988,
    "ECCENTRICITY": 0.0001349,
    "INCLINATION": 53.1609,
    "RA_OF_ASC_NODE": 227.961,
    "ARG_OF_PERICENTER": 108.637,
    "MEAN_ANOMALY": 251.4777,
    "EPHEMERIS_TYPE": 0,
    "CLASSIFICATION_TYPE": "U",
    "NORAD_CAT_ID": 60102,
    "ELEMENT_SET_NO": 999,
    "REV_AT_EPOCH": 7873,
    "BSTAR": 6.5548e-05,
    "MEAN_MOTION_DOT": 1.583e-05,
    "MEAN_MOTION_DDOT": 0.0,
    "TLE_LINE1": "1 60102U 24117M   25315.14274032  .00001583  00000+0  65548-4 0  9991",
    "TLE_LINE2": "2 60102  53.1609 227.9610 0001349 108.6370 251.4777 15.30199880 78736",
    "COMMENT": "Grouped by shell and plane from TLE"
  },
  {
    "OBJECT_NAME": "STARLINK-32013",
    "OBJECT_ID": "24117N",
    "EPOCH": "2025-11-11T03:20:59.178912",
    "MEAN_MOTION": 15.30238874,
    "ECCENTRICITY": 0.000169,
    "INCLINATION": 53.1587,
    "RA_OF_ASC_NODE": 227.9406,
    "ARG_OF_PERICENTER": 95.6402,
    "MEAN_ANOMALY": 264.4792,
    "EPHEMERIS_TYPE": 0,
    "CLASSIFICATION_TYPE": "U",
    "NORAD_CAT_ID": 60103,
    "ELEMENT_SET_NO": 999,
    "REV_AT_EPOCH": 7873,
    "BSTAR": 0.00056526,
    "MEAN_MOTION_DOT": 0.00016439,
    "MEAN_MOTION_DDOT": 0.0,
    "TLE_LINE1": "1 60103U 24117N   25315.13957383  .00016439  00000+0  56526-3 0  9999",
    "TLE_LINE2": "2 60103  53.1587 227.9406 0001690  95.6402 264.4792 15.30238874 78733",
    "COMMENT": "Grouped by shell and plane from TLE"
  },
  {
    "OBJECT_NAME": "STARLINK-32009",
    "OBJECT_ID": "24117P",
    "EPOCH": "2025-11-11T03:39:15.896448",
    "MEAN_MOTION": 15.30169853,
    "ECCENTRICITY": 0.0001306,
    "INCLINATION": 53.1614,
    "RA_OF_ASC_NODE": 227.9929,
    "ARG_OF_PERICENTER": 99.1805,
    "MEAN_ANOMALY": 260.9343,
    "EPHEMERIS_TYPE": 0,
    "CLASSIFICATION_TYPE": "U",
    "NORAD_CAT_ID": 60104,
    "ELEMENT_SET_NO": 999,
    "REV_AT_EPOCH": 7873,
    "BSTAR": 0.0,
    "MEAN_MOTION_DOT": -3.937e-05,
    "MEAN_MOTION_DDOT": 0.0,
    "TLE_LINE1": "1 60104U 24117P   25315.15226732 -.00003937  00000+0 -12098-3 0  9996",
    "TLE_LINE2": "2 60104  53.1614 227.9929 0001306  99.1805 260.9343 15.30169853 78738",
    "COMMENT": "Grouped by shell and plane from TLE"
  },
  {
    "OBJECT_NAME": "STARLINK-32018",
    "OBJECT_ID": "24117Q",
    "EPOCH": "2025-11-11T03:07:18.947424",
    "MEAN_MOTION": 15.30198989,
    "ECCENTRICITY": 0.0001222,
    "INCLINATION": 53.1614,
    "RA_OF_ASC_NODE": 227.8785,
    "ARG_OF_PERICENTER": 91.2103,
    "MEAN_ANOMALY": 268.9038,
    "EPHEMERIS_TYPE": 0,
    "CLASSIFICATION_TYPE": "U",
    "NORAD_CAT_ID": 60105,
    "ELEMENT_SET_NO": 999,
    "REV_AT_EPOCH": 7873,
    "BSTAR": 6.2687e-05,
    "MEAN_MOTION_DOT": 1.498e-05,
    "MEAN_MOTION_DDOT": 0.0,
    "TLE_LINE1": "1 60105U 24117Q   25315.13008041  .00001498  00000+0  62687-4 0  9994",
    "TLE_LINE2": "2 60105  53.1614 227.8785 0001222  91.2103 268.9038 15.30198989 78730",
    "COMMENT": "Grouped by shell and plane from TLE"
  },
  {
    "OBJECT_NAME": "STARLINK-32045",
    "OBJECT_ID": "24117R",
    "EPOCH": "2025-11-11T04:45:55.253088",
    "MEAN_MOTION": 15.30205219,
    "ECCENTRICITY": 0.000137,
    "INCLINATION": 53.1614,
    "RA_OF_ASC_NODE": 227.5966,
    "ARG_OF_PERICENTER": 91.1621,
    "MEAN_ANOMALY": 268.9537,
    "EPHEMERIS_TYPE": 0,
    "CLASSIFICATION_TYPE": "U",
    "NORAD_CAT_ID": 60106,
    "ELEMENT_SET_NO": 999,
    "REV_AT_EPOCH": 7874,
    "BSTAR": 7.975e-05,
    "MEAN_MOTION_DOT": 2.004e-05,
    "MEAN_MOTION_DDOT": 0.0,
    "TLE_LINE1": "1 60106U 24117R   25315.19855617  .00002004  00000+0  79750-4 0  9993",
    "TLE_LINE2": "2 60106  53.1614 227.5966 0001370  91.1621 268.9537 15.30205219 78747",
    "COMMENT": "Grouped by shell and plane from TLE"
  },
  {
    "OBJECT_NAME": "STARLINK-32035",
    "OBJECT_ID": "24117S",
    "EPOCH": "2025-11-11T02:52:07.208832",
    "MEAN_MOTION": 15.30206986,
    "ECCENTRICITY": 0.0001409,
    "INCLINATION": 53.1583,
    "RA_OF_ASC_NODE": 227.8149,
    "ARG_OF_PERICENTER": 103.7369,
    "MEAN_ANOMALY": 256.3789,
    "EPHEMERIS_TYPE": 0,
    "CLASSIFICATION_TYPE": "U",
    "NORAD_CAT_ID": 60107,
    "ELEMENT_SET_NO": 999,
    "REV_AT_EPOCH": 7873,
    "BSTAR": 0.00021946,
    "MEAN_MOTION_DOT": 6.147e-05,
    "MEAN_MOTION_DDOT": 0.0,
    "TLE_LINE1": "1 60107U 24117S   25315.11952788  .00006147  00000+0  21946-3 0  9998",
    "TLE_LINE2": "2 60107  53.1583 227.8149 0001409 103.7369 256.3789 15.30206986 78732",
    "COMMENT": "Grouped by shell and plane from TLE"
  },
  {
    "OBJECT_NAME": "STARLINK-32042",
    "OBJECT_ID": "24117T",
    "EPOCH": "2025-11-11T04:12:29.058912",
    "MEAN_MOTION": 15.30202321,
    "ECCENTRICITY": 0.0001315,
    "INCLINATION": 53.1605,
    "RA_OF_ASC_NODE": 227.4496,
    "ARG_OF_PERICENTER": 63.6346,
    "MEAN_ANOMALY": 296.4789,
    "EPHEMERIS_TYPE": 0,
    "CLASSIFICATION_TYPE": "U",
    "NORAD_CAT_ID": 60108,
    "ELEMENT_SET_NO": 999,
    "REV_AT_EPOCH": 7874,
    "BSTAR": 0.00014843000000000001,
    "MEAN_MOTION_DOT": 4.04e-05,
    "MEAN_MOTION_DDOT": 0.0,
    "TLE_LINE1": "1 60108U 24117T   25315.17533633  .00004040  00000+0  14843-3 0  9997",
    "TLE_LINE2": "2 60108  53.1605 227.4496 0001315  63.6346 296.4789 15.30202321 78749",
    "COMMENT": "Grouped by shell and plane from TLE"
  },
  {
    "OBJECT_NAME": "STARLINK-32040",
    "OBJECT_ID": "24117U",
    "EPOCH": "2025-11-11T03:46:39.313344",
    "MEAN_MOTION": 15.30194442,
    "ECCENTRICITY": 0.0001553,
    "INCLINATION": 53.1619,
    "RA_OF_ASC_NODE": 227.3441,
    "ARG_OF_PERICENTER": 87.8739,
    "MEAN_ANOMALY": 272.244,
    "EPHEMERIS_TYPE": 0,
    "CLASSIFICATION_TYPE": "U",
    "NORAD_CAT_ID": 60109,
    "ELEMENT_SET_NO": 999,
    "REV_AT_EPOCH": 7874,
    "BSTAR": 0.00010493,
    "MEAN_MOTION_DOT": 2.749e-05,
    "MEAN_MOTION_DDOT": 0.0,
    "TLE_LINE1": "1 60109U 24117U   25315.15739946  .00002749  00000+0  10493-3 0  9992",
    "TLE_LINE2": "2 60109  53.1619 227.3441 0001553  87.8739 272.2440 15.30194442 78742",
    "COMMENT": "Grouped by shell and plane from TLE"
  }
]